{
    "links": {
        "self": "http://www.neowsapp.com/rest/v1/neo/3720892?api_key=iIulBulltgU6a56xZRHN4H3l9WmuAYTsLGpBGhQ2"
    },
    "id": "3720892",
    "neo_reference_id": "3720892",
    "name": "(2015 KA158)",
    "designation": "2015 KA158",
    "nasa_jpl_url": "http://ssd.jpl.nasa.gov/sbdb.cgi?sstr=3720892",
    "absolute_magnitude_h": 26.1,
    "estimated_diameter": {
        "kilometers": {
            "estimated_diameter_min": 0.0160160338,
            "estimated_diameter_max": 0.0358129403
        },
        "meters": {
            "estimated_diameter_min": 16.0160337979,
            "estimated_diameter_max": 35.8129403019
        },
        "miles": {
            "estimated_diameter_min": 0.0099518989,
            "estimated_diameter_max": 0.0222531225
        },
        "feet": {
            "estimated_diameter_min": 52.5460443254,
            "estimated_diameter_max": 117.4965270602
        }
    },
    "is_potentially_hazardous_asteroid": false,
    "close_approach_data": [
        {
            "close_approach_date": "2015-05-02",
            "close_approach_date_full": "2015-May-02 08:18",
            "epoch_date_close_approach": 1430554680000,
            "relative_velocity": {
                "kilometers_per_second": "11.6722645589",
                "kilometers_per_hour": "42020.152412036",
                "miles_per_hour": "26109.6885918009"
            },
            "miss_distance": {
                "astronomical": "0.0382824855",
                "lunar": "14.8918868595",
                "kilometers": "5726978.289105885",
                "miles": "3558579.295335813"
            },
            "orbiting_body": "Earth"
        }
    ],
    "orbital_data": {
        "orbit_id": "4",
        "orbit_determination_date": "2019-01-29 07:25:20",
        "first_observation_date": "2015-05-21",
        "last_observation_date": "2015-05-24",
        "data_arc_in_days": 3,
        "observations_used": 13,
        "orbit_uncertainty": "9",
        "minimum_orbit_intersection": ".0246896",
        "jupiter_tisserand_invariant": "3.613",
        "epoch_osculation": "2457164.5",
        "eccentricity": ".5513088124030996",
        "semi_major_axis": "2.021415840837672",
        "inclination": "2.506188498801448",
        "ascending_node_longitude": "251.0855028443636",
        "orbital_period": "1049.740429755518",
        "perihelion_distance": ".9069914742526421",
        "perihelion_argument": "281.7919505878178",
        "aphelion_distance": "3.135840207422702",
        "perihelion_time": "2457108.929092830456",
        "mean_anomaly": "19.05759368122563",
        "mean_motion": ".3429419214460885",
        "equinox": "J2000",
        "orbit_class": {
            "orbit_class_type": "APO",
            "orbit_class_description": "Near-Earth asteroid orbits which cross the Earth’s orbit similar to that of 1862 Apollo",
            "orbit_class_range": "a (semi-major axis) > 1.0 AU; q (perihelion) < 1.017 AU"
        }
    },
    "is_sentry_object": false
}